SPACEBEE-145            
1 52411U 22047T   24113.19929693  .01189714  67117-3  31950-2 0  9993
2 52411  97.3767 207.4678 0010757 271.0208  88.9835 15.94444752111513
SPACEBEE-146            
1 52412U 22047U   24113.01385720  .04313542  23914-5  31399-2 0  9999
2 52412  97.3644 207.8327 0014291 277.7338  82.2325 16.15506831111520
SPACEBEE-151            
1 52413U 22047V   24113.20273949  .01218031  68320-3  36955-2 0  9995
2 52413  97.3759 207.2645 0010462 272.1983  87.8092 15.92117669111507
SPACEBEE-152            
1 52414U 22047W   24113.18941965  .01040380  46214-3  35393-2 0  9996
2 52414  97.3785 206.9514 0010257 271.1187  88.8910 15.89813071111488
SPACEBEE-147            
1 52415U 22047X   24112.80548220  .00756732  00000+0  36064-2 0  9991
2 52415  97.3819 206.2116 0008161 269.5230  90.5102 15.80882964111390
SPACEBEE-155            
1 52416U 22047Y   24113.20178970  .00820564  00000+0  37051-2 0  9990
2 52416  97.3761 205.8893 0008274 271.3885  88.6435 15.81905570111427
SPACEBEE-154            
1 52417U 22047Z   24112.80468081  .00966658  00000+0  36375-2 0  9994
2 52417  97.3794 206.2705 0009100 271.8976  88.1253 15.85453892111406
TRSI-3                  
1 52418U 22047AA  24112.78701761  .00308951  00000+0  31775-2 0  9992
2 52418  97.3861 204.1410 0004623 283.6548  76.4196 15.63878032111266
MYRADAR1                
1 52419U 22047AB  24113.19679168  .00125671  00000+0  23510-2 0  9998
2 52419  97.3897 201.6628 0003932 317.1079  42.9864 15.48247532111137
TRSI-2                  
1 52420U 22047AC  24112.78057698  .00349454  00000+0  32387-2 0  9991
2 52420  97.3860 204.4480 0005387 281.1348  78.9307 15.66386718111288
BRO-6                   
1 52422U 22047AE  24113.15822714  .00020721  00000+0  91031-3 0  9999
2 52422  97.3980 193.8876 0006576  18.0094 342.1374 15.21924709110580
JILIN-1 KUANFU 01C      
1 52443U 22048A   24113.16284391  .00012259  00000+0  72354-3 0  9991
2 52443  97.5988 187.4810 0010514 336.8294  23.2461 15.11634672108453
JILIN-1 GAOFEN 3D27     
1 52444U 22048B   24113.16691022  .00032942  00000+0  14040-2 0  9993
2 52444  97.6004 190.8671 0008866 319.3411  40.7162 15.22843897108681
JILIN-1 GAOFEN 3D28     
1 52445U 22048C   24113.21042638  .00031455  00000+0  13414-2 0  9995
2 52445  97.5979 190.7227 0008574 320.8879  39.1736 15.22836650108698
JILIN-1 GAOFEN 3D29     
1 52446U 22048D   24113.19686725  .00031039  00000+0  13242-2 0  9991
2 52446  97.6007 190.9855 0008419 322.0371  38.0271 15.22827432108690
JILIN-1 GAOFEN 3D30     
1 52447U 22048E   24113.15886097  .00032243  00000+0  13739-2 0  9991
2 52447  97.5988 190.8707 0008925 313.5539  46.4955 15.22855592108696
JILIN-1 GAOFEN 3D31     
1 52448U 22048F   24113.21685053  .00031756  00000+0  13550-2 0  9997
2 52448  97.5992 190.9726 0007272 332.6055  27.4797 15.22824818108705
JILIN-1 GAOFEN 3D32     
1 52449U 22048G   24113.20106634  .00033910  00000+0  13778-2 0  9996
2 52449  97.6011 192.0656 0009155 328.4199  31.6488 15.24450810108767
JILIN-1 GAOFEN 3D33     
1 52450U 22048H   24113.18961997  .00034192  00000+0  13803-2 0  9998
2 52450  97.6007 192.1677 0011476 322.1619  37.8811 15.24644729108778
STARLINK-3870           
1 52451U 22049A   24112.66989986 -.00001689  00000+0 -88066-4 0  9992
2 52451  53.2167 273.2730 0001311  99.0563 261.0577 15.08836123108391
STARLINK-3909           
1 52452U 22049B   24112.68093067  .00009369  00000+0  60579-3 0  9990
2 52452  53.2171 273.0951 0001677 112.0425 248.0745 15.08850145108558
STARLINK-3872           
1 52453U 22049C   24112.72878238 -.00001504  00000+0 -76418-4 0  9992
2 52453  53.2165 273.0038 0001063 104.3219 255.7891 15.08852689108408
STARLINK-3888           
1 52454U 22049D   24112.73246402 -.00000597  00000+0 -19450-4 0  9990
2 52454  53.2177 272.9844 0001342 105.6146 254.4995 15.08839576108409
STARLINK-3890           
1 52455U 22049E   24112.72605595 -.00001381  00000+0 -68722-4 0  9990
2 52455  53.2171 273.0148 0001395 115.2981 244.8156 15.08824352108403
STARLINK-3896           
1 52456U 22049F   24112.72238703  .00000972  00000+0  79158-4 0  9992
2 52456  53.2175 273.0322 0001737 107.1232 252.9951 15.08837178108404
STARLINK-3899           
1 52457U 22049G   24112.71774237 -.00001257  00000+0 -60897-4 0  9998
2 52457  53.2178 273.0432 0001368 115.5963 244.5170 15.08840886108404
STARLINK-3898           
1 52458U 22049H   24112.71501478 -.00002319  00000+0 -12766-3 0  9995
2 52458  53.2176 273.0700 0001476  84.3367 275.7793 15.08845412108409
STARLINK-3856           
1 52459U 22049J   24112.63402759  .00005848  00000+0  38510-3 0  9992
2 52459  53.2173 263.4277 0001651 110.2175 249.8995 15.08849315108525
STARLINK-3865           
1 52460U 22049K   24112.82537193  .00002824  00000+0  19543-3 0  9992
2 52460  53.2173 262.5219 0001595  93.8007 266.3167 15.08841920108552
STARLINK-3900           
1 52461U 22049L   24112.82997123  .00003504  00000+0  23805-3 0  9998
2 52461  53.2181 252.5515 0001583  79.4823 280.6348 15.08850859108699
STARLINK-3903           
1 52462U 22049M   24112.82634310  .00008512  00000+0  55197-3 0  9998
2 52462  53.2177 262.5762 0001662 100.6201 259.4978 15.08860184108555
STARLINK-3885           
1 52463U 22049N   24112.62758664 -.00002634  00000+0 -14747-3 0  9993
2 52463  53.2167 253.4654 0001607 100.7762 259.3411 15.08836889108664
STARLINK-3904           
1 52464U 22049P   24112.63034717 -.00001347  00000+0 -66527-4 0  9995
2 52464  53.2181 263.4444 0001555 114.8168 245.2986 15.08836646108524
STARLINK-3863           
1 52465U 22049Q   24112.55766433 -.00001787  00000+0 -94227-4 0  9990
2 52465  53.2179 253.7732 0001926 104.3501 255.7705 15.08833952108657
STARLINK-3840           
1 52466U 22049R   24112.83367099 -.00004532  00000+0 -26671-3 0  9995
2 52466  53.2168 262.7089 0001436  64.0656 296.0484 15.08857317108552
STARLINK-3873           
1 52467U 22049S   24112.68923037  .00000243  00000+0  33333-4 0  9996
2 52467  53.2175 263.1860 0001493  90.9701 269.1462 15.08845345108538
STARLINK-3864           
1 52468U 22049T   24112.74074928  .00053859  00000+0  33724-2 0  9993
2 52468  53.2163 262.9532 0001366  69.4440 290.6699 15.08884005108547
STARLINK-3828           
1 52469U 22049U   24112.81433224  .00005955  00000+0  39151-3 0  9995
2 52469  53.2180 262.6193 0001391 100.3933 259.7216 15.08877697108558
STARLINK-3859           
1 52470U 22049V   24112.79962124  .00002157  00000+0  15353-3 0  9999
2 52470  53.2180 262.6880 0001671  93.7389 266.3794 15.08847731108555
STARLINK-3862           
1 52471U 22049W   24112.67913406 -.00002389  00000+0 -13202-3 0  9996
2 52471  53.2166 263.2417 0001707  79.5034 280.6151 15.08839731108537
STARLINK-3881           
1 52472U 22049X   24112.79593942  .00001183  00000+0  92387-4 0  9990
2 52472  53.2195 262.7061 0001620  94.4183 265.6994 15.08848716108557
STARLINK-3879           
1 52473U 22049Y   24112.73706242  .00002881  00000+0  19898-3 0  9995
2 52473  53.2191 262.9688 0001624  98.1229 261.9948 15.08853490108549
STARLINK-3855           
1 52474U 22049Z   24112.68374041 -.00000275  00000+0  80338-6 0  9994
2 52474  53.2178 253.2156 0001323 112.8914 247.2218 15.08841873108672
STARLINK-3882           
1 52475U 22049AA  24112.68556475  .00001057  00000+0  84477-4 0  9992
2 52475  53.2164 263.4236 0001851  85.9629 274.1574 15.08842143108539
STARLINK-3835           
1 52476U 22049AB  24112.76841064 -.00002102  00000+0 -11403-3 0  9995
2 52476  53.2175 253.0661 0001658  99.9331 260.1849 15.08833779109928
STARLINK-3860           
1 52477U 22049AC  24112.62022844  .00003371  00000+0  22976-3 0  9992
2 52477  53.2172 253.4889 0001706 117.5934 242.5231 15.08845650109900
STARLINK-3825           
1 52478U 22049AD  24112.72234912  .00006414  00000+0  42057-3 0  9998
2 52478  53.2163 263.0332 0001583  98.1769 261.9402 15.08851183109783
STARLINK-3878           
1 52479U 22049AE  24112.60550352  .00004100  00000+0  27551-3 0  9997
2 52479  53.2184 253.5632 0001883 103.7545 256.3657 15.08848702108829
STARLINK-3839           
1 52480U 22049AF  24112.78489695 -.00000769  00000+0 -30194-4 0  9996
2 52480  53.2179 262.7533 0001543 106.8156 253.3005 15.08841601108557
STARLINK-3842           
1 52481U 22049AG  24112.79226492 -.00001005  00000+0 -45093-4 0  9990
2 52481  53.2166 262.7202 0001219 102.1556 257.9572 15.08831961109794
STARLINK-3813           
1 52482U 22049AH  24112.79686380  .00059400  00000+0  37125-2 0  9992
2 52482  53.2162 252.6995 0001421  71.7015 288.4132 15.08904413108696
STARLINK-3875           
1 52483U 22049AJ  24112.60918960 -.00000849  00000+0 -35253-4 0  9992
2 52483  53.2172 253.5383 0001199  93.8702 266.2427 15.08834162109908
STARLINK-3887           
1 52484U 22049AK  24112.58250303 -.00001491  00000+0 -75603-4 0  9997
2 52484  53.2191 263.6674 0001444 101.1224 258.9930 15.08835362108527
STARLINK-3913           
1 52485U 22049AL  24112.66804763  .00026352  00000+0  16657-2 0  9995
2 52485  53.2173 253.2796 0001457  80.4017 279.7140 15.08881851108675
STARLINK-3918           
1 52486U 22049AM  24112.70761969  .00001283  00000+0  98655-4 0  9997
2 52486  53.2179 263.1016 0001747 104.5878 255.5307 15.08846691108706
STARLINK-3902           
1 52487U 22049AN  24112.67911380 -.00004582  00000+0 -27010-3 0  9991
2 52487  53.2166 253.3311 0001542 115.6713 244.4439 15.08824391109916
STARLINK-3892           
1 52488U 22049AP  24112.70394095 -.00000707  00000+0 -26321-4 0  9994
2 52488  53.2179 263.1193 0001641  99.7263 260.3915 15.08839841108540
STARLINK-3923           
1 52489U 22049AQ  24112.71131367  .00007768  00000+0  50564-3 0  9994
2 52489  53.2165 263.0840 0001694 102.5874 257.5308 15.08840009108545
STARLINK-3914           
1 52490U 22049AR  24112.78581757  .00010190  00000+0  65688-3 0  9991
2 52490  53.2180 252.7470 0001310 104.8929 255.2209 15.08867373108693
